{"type": "FeatureCollection", "features": [ {"type": "Feature", "properties": {"norad_id": 30570, "name": "FENGYUN 1C DEB", "group": "fengyun-1c-debris", "lat": -17.516637060957276, "lon": 36.24768745202576, "alt_km": 875.2610450166694, "timestamp": "2025-12-27T07:26:25.499160+00:00", "meta": {"OBJECT_NAME": "FENGYUN 1C DEB", "OBJECT_ID": "1999-025ALL", "EPOCH": "2025-12-26T15:07:52.830048", "MEAN_MOTION": 14.14293056, "ECCENTRICITY": 0.0035886, "INCLINATION": 98.7139, "RA_OF_ASC_NODE": 32.8104, "ARG_OF_PERICENTER": 172.4272, "MEAN_ANOMALY": 311.9672, "EPHEMERIS_TYPE": 0, "CLASSIFICATION_TYPE": "U", "NORAD_CAT_ID": 30570, "ELEMENT_SET_NO": 999, "REV_AT_EPOCH": 97194, "BSTAR": 0.0004645, "MEAN_MOTION_DOT": 8.5e-06, "MEAN_MOTION_DDOT": 0}, "tle": {"line1": "1 30570U 99025ALL 25360.63047257  .00000850  00000+0  46450-3 0  9994", "line2": "2 30570  98.7139  32.8104 0035886 172.4272 311.9672 14.14293056971941"}}, "geometry": {"type": "Point", "coordinates": [36.24768745202576, -17.516637060957276]}}, {"type": "Feature", "properties": {"norad_id": 30571, "name": "FENGYUN 1C DEB", "group": "fengyun-1c-debris", "lat": 81.20118914711446, "lon": -69.81075148632293, "alt_km": 852.3538155489277, "timestamp": "2025-12-27T07:26:25.499170+00:00", "meta": {"OBJECT_NAME": "FENGYUN 1C DEB", "OBJECT_ID": "1999-025ALM", "EPOCH": "2025-12-26T19:55:30.469728", "MEAN_MOTION": 14.10708755, "ECCENTRICITY": 0.00213825, "INCLINATION": 98.7303, "RA_OF_ASC_NODE": 26.642, "ARG_OF_PERICENTER": 193.2164, "MEAN_ANOMALY": 342.7308, "EPHEMERIS_TYPE": 0, "CLASSIFICATION_TYPE": "U", "NORAD_CAT_ID": 30571, "ELEMENT_SET_NO": 999, "REV_AT_EPOCH": 97085, "BSTAR": 0.00029544214, "MEAN_MOTION_DOT": 4.86e-06, "MEAN_MOTION_DDOT": 0}, "tle": {"line1": "1 30571U 99025ALM 25360.83021377  .00000486  00000+0  29544-3 0  9992", "line2": "2 30571  98.7303  26.6420 0021382 193.2164 342.7308 14.10708755970854"}}, "geometry": {"type": "Point", "coordinates": [-69.81075148632293, 81.20118914711446]}}, {"type": "Feature", "properties": {"norad_id": 30572, "name": "FENGYUN 1C DEB", "group": "fengyun-1c-debris", "lat": -79.8138944931894, "lon": 151.31219742648582, "alt_km": 855.5267542989914, "timestamp": "2025-12-27T07:26:25.499180+00:00", "meta": {"OBJECT_NAME": "FENGYUN 1C DEB", "OBJECT_ID": "1999-025ALN", "EPOCH": "2025-12-26T20:48:21.805056", "MEAN_MOTION": 14.08933946, "ECCENTRICITY": 0.0021097, "INCLINATION": 98.7708, "RA_OF_ASC_NODE": 30.1106, "ARG_OF_PERICENTER": 251.8841, "MEAN_ANOMALY": 286.6385, "EPHEMERIS_TYPE": 0, "CLASSIFICATION_TYPE": "U", "NORAD_CAT_ID": 30572, "ELEMENT_SET_NO": 999, "REV_AT_EPOCH": 96960, "BSTAR": 0.0001913311, "MEAN_MOTION_DOT": 2.88e-06, "MEAN_MOTION_DDOT": 0}, "tle": {"line1": "1 30572U 99025ALN 25360.86691904  .00000288  00000+0  19133-3 0  9998", "line2": "2 30572  98.7708  30.1106 0021097 251.8841 286.6385 14.08933946969602"}}, "geometry": {"type": "Point", "coordinates": [151.31219742648582, -79.8138944931894]}}, {"type": "Feature", "properties": {"norad_id": 30573, "name": "FENGYUN 1C DEB", "group": "fengyun-1c-debris", "lat": 80.06606409183887, "lon": -72.36035383163097, "alt_km": 886.9135542731292, "timestamp": "2025-12-27T07:26:25.499190+00:00", "meta": {"OBJECT_NAME": "FENGYUN 1C DEB", "OBJECT_ID": "1999-025ALP", "EPOCH": "2025-12-26T02:23:10.549824", "MEAN_MOTION": 14.13928512, "ECCENTRICITY": 0.00890165, "INCLINATION": 99.226, "RA_OF_ASC_NODE": 38.2612, "ARG_OF_PERICENTER": 236.2423, "MEAN_ANOMALY": 179.4124, "EPHEMERIS_TYPE": 0, "CLASSIFICATION_TYPE": "U", "NORAD_CAT_ID": 30573, "ELEMENT_SET_NO": 999, "REV_AT_EPOCH": 96386, "BSTAR": 0.0017363391, "MEAN_MOTION_DOT": 3.375e-05, "MEAN_MOTION_DDOT": 0}, "tle": {"line1": "1 30573U 99025ALP 25360.09942766  .00003375  00000+0  17363-2 0  9991", "line2": "2 30573  99.2260  38.2612 0089016 236.2423 179.4124 14.13928512963862"}}, "geometry": {"type": "Point", "coordinates": [-72.36035383163097, 80.06606409183887]}}, {"type": "Feature", "properties": {"norad_id": 30574, "name": "FENGYUN 1C DEB", "group": "fengyun-1c-debris", "lat": -73.97791964766121, "lon": -160.59462871902446, "alt_km": 833.2932380514267, "timestamp": "2025-12-27T07:26:25.499200+00:00", "meta": {"OBJECT_NAME": "FENGYUN 1C DEB", "OBJECT_ID": "1999-025ALQ", "EPOCH": "2025-12-25T10:28:43.135104", "MEAN_MOTION": 13.77586034, "ECCENTRICITY": 0.0220298, "INCLINATION": 99.3007, "RA_OF_ASC_NODE": 162.7748, "ARG_OF_PERICENTER": 313.926, "MEAN_ANOMALY": 44.3892, "EPHEMERIS_TYPE": 0, "CLASSIFICATION_TYPE": "U", "NORAD_CAT_ID": 30574, "ELEMENT_SET_NO": 999, "REV_AT_EPOCH": 93943, "BSTAR": 0.0023552, "MEAN_MOTION_DOT": 2.765e-05, "MEAN_MOTION_DDOT": 0}, "tle": {"line1": "1 30574U 99025ALQ 25359.43661036  .00002765  00000+0  23552-2 0  9995", "line2": "2 30574  99.3007 162.7748 0220298 313.9260  44.3892 13.77586034939433"}}, "geometry": {"type": "Point", "coordinates": [-160.59462871902446, -73.97791964766121]}}, {"type": "Feature", "properties": {"norad_id": 30575, "name": "FENGYUN 1C DEB", "group": "fengyun-1c-debris", "lat": 78.48108881257278, "lon": -34.32572223730225, "alt_km": 755.1532030042054, "timestamp": "2025-12-27T07:26:25.499211+00:00", "meta": {"OBJECT_NAME": "FENGYUN 1C DEB", "OBJECT_ID": "1999-025ALR", "EPOCH": "2025-12-26T18:22:03.935712", "MEAN_MOTION": 14.4015058, "ECCENTRICITY": 0.00547271, "INCLINATION": 99.1687, "RA_OF_ASC_NODE": 92.6714, "ARG_OF_PERICENTER": 195.5471, "MEAN_ANOMALY": 319.664, "EPHEMERIS_TYPE": 0, "CLASSIFICATION_TYPE": "U", "NORAD_CAT_ID": 30575, "ELEMENT_SET_NO": 999, "REV_AT_EPOCH": 98419, "BSTAR": 0.0010997834, "MEAN_MOTION_DOT": 3.487e-05, "MEAN_MOTION_DDOT": 0}, "tle": {"line1": "1 30575U 99025ALR 25360.76532333  .00003487  00000+0  10998-2 0  9993", "line2": "2 30575  99.1687  92.6714 0054727 195.5471 319.6640 14.40150580984196"}}, "geometry": {"type": "Point", "coordinates": [-34.32572223730225, 78.48108881257278]}}, {"type": "Feature", "properties": {"norad_id": 30577, "name": "FENGYUN 1C DEB", "group": "fengyun-1c-debris", "lat": 70.19098186130172, "lon": 9.524983023337299, "alt_km": 869.0214931022583, "timestamp": "2025-12-27T07:26:25.499221+00:00", "meta": {"OBJECT_NAME": "FENGYUN 1C DEB", "OBJECT_ID": "1999-025ALT", "EPOCH": "2025-12-26T09:03:05.175072", "MEAN_MOTION": 14.11167923, "ECCENTRICITY": 0.0028972, "INCLINATION": 98.7693, "RA_OF_ASC_NODE": 33.9885, "ARG_OF_PERICENTER": 242.5575, "MEAN_ANOMALY": 133.1652, "EPHEMERIS_TYPE": 0, "CLASSIFICATION_TYPE": "U", "NORAD_CAT_ID": 30577, "ELEMENT_SET_NO": 999, "REV_AT_EPOCH": 96977, "BSTAR": 0.0004994, "MEAN_MOTION_DOT": 8.6e-06, "MEAN_MOTION_DDOT": 0}, "tle": {"line1": "1 30577U 99025ALT 25360.37714323  .00000860  00000+0  49940-3 0  9995", "line2": "2 30577  98.7693  33.9885 0028972 242.5575 133.1652 14.11167923969774"}}, "geometry": {"type": "Point", "coordinates": [9.524983023337299, 70.19098186130172]}}, {"type": "Feature", "properties": {"norad_id": 30579, "name": "FENGYUN 1C DEB", "group": "fengyun-1c-debris", "lat": -31.314727018358614, "lon": 30.974150788532878, "alt_km": 884.6989116814157, "timestamp": "2025-12-27T07:26:25.499231+00:00", "meta": {"OBJECT_NAME": "FENGYUN 1C DEB", "OBJECT_ID": "1999-025ALV", "EPOCH": "2025-12-26T20:27:06.739776", "MEAN_MOTION": 14.05264577, "ECCENTRICITY": 0.00535597, "INCLINATION": 98.8056, "RA_OF_ASC_NODE": 25.1186, "ARG_OF_PERICENTER": 64.5612, "MEAN_ANOMALY": 109.4347, "EPHEMERIS_TYPE": 0, "CLASSIFICATION_TYPE": "U", "NORAD_CAT_ID": 30579, "ELEMENT_SET_NO": 999, "REV_AT_EPOCH": 96655, "BSTAR": 0.00020618202, "MEAN_MOTION_DOT": 2.95e-06, "MEAN_MOTION_DDOT": 0}, "tle": {"line1": "1 30579U 99025ALV 25360.85216134  .00000295  00000+0  20618-3 0  9990", "line2": "2 30579  98.8056  25.1186 0053559  64.5612 109.4347 14.05264577966556"}}, "geometry": {"type": "Point", "coordinates": [30.974150788532878, -31.314727018358614]}}, {"type": "Feature", "properties": {"norad_id": 30594, "name": "FENGYUN 1C DEB", "group": "fengyun-1c-debris", "lat": 22.27775134408627, "lon": 41.71901174378566, "alt_km": 896.4237382026859, "timestamp": "2025-12-27T07:26:25.499241+00:00", "meta": {"OBJECT_NAME": "FENGYUN 1C DEB", "OBJECT_ID": "1999-025ALZ", "EPOCH": "2025-12-26T08:39:21.441312", "MEAN_MOTION": 14.17353474, "ECCENTRICITY": 0.0193013, "INCLINATION": 99.1504, "RA_OF_ASC_NODE": 216.9554, "ARG_OF_PERICENTER": 277.6525, "MEAN_ANOMALY": 80.2768, "EPHEMERIS_TYPE": 0, "CLASSIFICATION_TYPE": "U", "NORAD_CAT_ID": 30594, "ELEMENT_SET_NO": 999, "REV_AT_EPOCH": 97772, "BSTAR": 0.00021, "MEAN_MOTION_DOT": 4.59e-06, "MEAN_MOTION_DDOT": 0}, "tle": {"line1": "1 30594U 99025ALZ 25360.36066483  .00000459  00000+0  21000-3 0  9991", "line2": "2 30594  99.1504 216.9554 0193013 277.6525  80.2768 14.17353474977726"}}, "geometry": {"type": "Point", "coordinates": [41.71901174378566, 22.27775134408627]}}, {"type": "Feature", "properties": {"norad_id": 30596, "name": "FENGYUN 1C DEB", "group": "fengyun-1c-debris", "lat": -58.924302036146784, "lon": 12.878307071949802, "alt_km": 678.8339885653077, "timestamp": "2025-12-27T07:26:25.499251+00:00", "meta": {"OBJECT_NAME": "FENGYUN 1C DEB", "OBJECT_ID": "1999-025AMB", "EPOCH": "2025-12-26T23:37:03.350784", "MEAN_MOTION": 14.34393234, "ECCENTRICITY": 0.02472002, "INCLINATION": 98.4135, "RA_OF_ASC_NODE": 358.3443, "ARG_OF_PERICENTER": 246.4607, "MEAN_ANOMALY": 169.1645, "EPHEMERIS_TYPE": 0, "CLASSIFICATION_TYPE": "U", "NORAD_CAT_ID": 30596, "ELEMENT_SET_NO": 999, "REV_AT_EPOCH": 98765, "BSTAR": 0.00027198263, "MEAN_MOTION_DOT": 1.025e-05, "MEAN_MOTION_DDOT": 0}, "tle": {"line1": "1 30596U 99025AMB 25360.98406656  .00001025  00000+0  27198-3 0  9995", "line2": "2 30596  98.4135 358.3443 0247200 246.4607 169.1645 14.34393234987652"}}, "geometry": {"type": "Point", "coordinates": [12.878307071949802, -58.924302036146784]}}]}